{"type": "FeatureCollection", "features": [ {"type": "Feature", "properties": {"norad_id": 29820, "name": "FENGYUN 1C DEB", "group": "fengyun-1c-debris", "lat": 6.244396666611533, "lon": 1.0584040172422189, "alt_km": 933.29902491746, "timestamp": "2025-12-21T05:44:51.857392+00:00", "meta": {"OBJECT_NAME": "FENGYUN 1C DEB", "OBJECT_ID": "1999-025DN", "EPOCH": "2025-12-20T00:56:30.285888", "MEAN_MOTION": 14.02619407, "ECCENTRICITY": 0.00723379, "INCLINATION": 98.8322, "RA_OF_ASC_NODE": 0.8694, "ARG_OF_PERICENTER": 217.2718, "MEAN_ANOMALY": 211.5436, "EPHEMERIS_TYPE": 0, "CLASSIFICATION_TYPE": "U", "NORAD_CAT_ID": 29820, "ELEMENT_SET_NO": 999, "REV_AT_EPOCH": 96662, "BSTAR": 0.00061243044, "MEAN_MOTION_DOT": 9.23e-06, "MEAN_MOTION_DDOT": 0}, "tle": {"line1": "1 29820U 99025DN  25354.03923942  .00000923  00000+0  61243-3 0  9999", "line2": "2 29820  98.8322   0.8694 0072337 217.2718 211.5436 14.02619407966627"}}, "geometry": {"type": "Point", "coordinates": [1.0584040172422189, 6.244396666611533]}}, {"type": "Feature", "properties": {"norad_id": 29821, "name": "FENGYUN 1C DEB", "group": "fengyun-1c-debris", "lat": -47.627069810814675, "lon": 60.01195356805146, "alt_km": 1081.8450383433983, "timestamp": "2025-12-21T05:44:51.857402+00:00", "meta": {"OBJECT_NAME": "FENGYUN 1C DEB", "OBJECT_ID": "1999-025DP", "EPOCH": "2025-12-20T22:18:12.441024", "MEAN_MOTION": 14.11100928, "ECCENTRICITY": 0.03762217, "INCLINATION": 98.8724, "RA_OF_ASC_NODE": 49.8457, "ARG_OF_PERICENTER": 97.5543, "MEAN_ANOMALY": 81.8489, "EPHEMERIS_TYPE": 0, "CLASSIFICATION_TYPE": "U", "NORAD_CAT_ID": 29821, "ELEMENT_SET_NO": 999, "REV_AT_EPOCH": 96626, "BSTAR": 0.00036396688, "MEAN_MOTION_DOT": 1.228e-05, "MEAN_MOTION_DDOT": 0}, "tle": {"line1": "1 29821U 99025DP  25354.92931066  .00001228  00000+0  36397-3 0  9995", "line2": "2 29821  98.8724  49.8457 0376221  97.5543  81.8489 14.11100928966267"}}, "geometry": {"type": "Point", "coordinates": [60.01195356805146, -47.627069810814675]}}, {"type": "Feature", "properties": {"norad_id": 29827, "name": "FENGYUN 1C DEB", "group": "fengyun-1c-debris", "lat": -77.63042102401992, "lon": 122.5729883535437, "alt_km": 812.5437121086843, "timestamp": "2025-12-21T05:44:51.857412+00:00", "meta": {"OBJECT_NAME": "FENGYUN 1C DEB", "OBJECT_ID": "1999-025DV", "EPOCH": "2025-12-20T22:03:03.285792", "MEAN_MOTION": 14.21698823, "ECCENTRICITY": 0.00246858, "INCLINATION": 98.6027, "RA_OF_ASC_NODE": 345.9115, "ARG_OF_PERICENTER": 298.0313, "MEAN_ANOMALY": 122.742, "EPHEMERIS_TYPE": 0, "CLASSIFICATION_TYPE": "U", "NORAD_CAT_ID": 29827, "ELEMENT_SET_NO": 999, "REV_AT_EPOCH": 97979, "BSTAR": 0.00024339204, "MEAN_MOTION_DOT": 4.93e-06, "MEAN_MOTION_DDOT": 0}, "tle": {"line1": "1 29827U 99025DV  25354.91878803  .00000493  00000+0  24339-3 0  9995", "line2": "2 29827  98.6027 345.9115 0024685 298.0313 122.7420 14.21698823979794"}}, "geometry": {"type": "Point", "coordinates": [122.5729883535437, -77.63042102401992]}}, {"type": "Feature", "properties": {"norad_id": 29828, "name": "FENGYUN 1C DEB", "group": "fengyun-1c-debris", "lat": -79.99044836505162, "lon": 159.4774070901057, "alt_km": 902.9333510028673, "timestamp": "2025-12-21T05:44:51.857422+00:00", "meta": {"OBJECT_NAME": "FENGYUN 1C DEB", "OBJECT_ID": "1999-025DW", "EPOCH": "2025-12-20T20:14:23.593632", "MEAN_MOTION": 14.08185232, "ECCENTRICITY": 0.00614651, "INCLINATION": 98.7694, "RA_OF_ASC_NODE": 40.0852, "ARG_OF_PERICENTER": 133.6179, "MEAN_ANOMALY": 283.8109, "EPHEMERIS_TYPE": 0, "CLASSIFICATION_TYPE": "U", "NORAD_CAT_ID": 29828, "ELEMENT_SET_NO": 999, "REV_AT_EPOCH": 96851, "BSTAR": 0.00066193884, "MEAN_MOTION_DOT": 1.107e-05, "MEAN_MOTION_DDOT": 0}, "tle": {"line1": "1 29828U 99025DW  25354.84332863  .00001107  00000+0  66194-3 0  9997", "line2": "2 29828  98.7694  40.0852 0061465 133.6179 283.8109 14.08185232968519"}}, "geometry": {"type": "Point", "coordinates": [159.4774070901057, -79.99044836505162]}}, {"type": "Feature", "properties": {"norad_id": 29832, "name": "FENGYUN 1C DEB", "group": "fengyun-1c-debris", "lat": -22.949115248453083, "lon": 110.9316564027079, "alt_km": 683.0879413206567, "timestamp": "2025-12-21T05:44:51.857432+00:00", "meta": {"OBJECT_NAME": "FENGYUN 1C DEB", "OBJECT_ID": "1999-025EA", "EPOCH": "2025-12-20T19:57:43.934400", "MEAN_MOTION": 14.56570157, "ECCENTRICITY": 0.01922065, "INCLINATION": 98.8197, "RA_OF_ASC_NODE": 106.7308, "ARG_OF_PERICENTER": 258.2958, "MEAN_ANOMALY": 99.6616, "EPHEMERIS_TYPE": 0, "CLASSIFICATION_TYPE": "U", "NORAD_CAT_ID": 29832, "ELEMENT_SET_NO": 999, "REV_AT_EPOCH": 373, "BSTAR": 0.00013246957, "MEAN_MOTION_DOT": 6.92e-06, "MEAN_MOTION_DDOT": 0}, "tle": {"line1": "1 29832U 99025EA  25354.83175850  .00000692  00000+0  13247-3 0  9991", "line2": "2 29832  98.8197 106.7308 0192206 258.2958  99.6616 14.56570157  3733"}}, "geometry": {"type": "Point", "coordinates": [110.9316564027079, -22.949115248453083]}}, {"type": "Feature", "properties": {"norad_id": 29833, "name": "FENGYUN 1C DEB", "group": "fengyun-1c-debris", "lat": -38.801959826111, "lon": -13.7850944016679, "alt_km": 601.2980471868514, "timestamp": "2025-12-21T05:44:51.857443+00:00", "meta": {"OBJECT_NAME": "FENGYUN 1C DEB", "OBJECT_ID": "1999-025EB", "EPOCH": "2025-12-20T21:52:24.407040", "MEAN_MOTION": 14.91269561, "ECCENTRICITY": 0.00886074, "INCLINATION": 99.0772, "RA_OF_ASC_NODE": 338.4519, "ARG_OF_PERICENTER": 230.4262, "MEAN_ANOMALY": 128.9103, "EPHEMERIS_TYPE": 0, "CLASSIFICATION_TYPE": "U", "NORAD_CAT_ID": 29833, "ELEMENT_SET_NO": 999, "REV_AT_EPOCH": 693, "BSTAR": 0.00074772979, "MEAN_MOTION_DOT": 7.95e-05, "MEAN_MOTION_DDOT": 0}, "tle": {"line1": "1 29833U 99025EB  25354.91139360  .00007950  00000+0  74773-3 0  9992", "line2": "2 29833  99.0772 338.4519 0088607 230.4262 128.9103 14.91269561  6938"}}, "geometry": {"type": "Point", "coordinates": [-13.7850944016679, -38.801959826111]}}, {"type": "Feature", "properties": {"norad_id": 29835, "name": "FENGYUN 1C DEB", "group": "fengyun-1c-debris", "lat": 52.302329074533446, "lon": -43.992239685518825, "alt_km": 790.5224356197668, "timestamp": "2025-12-21T05:44:51.857453+00:00", "meta": {"OBJECT_NAME": "FENGYUN 1C DEB", "OBJECT_ID": "1999-025ED", "EPOCH": "2025-12-20T07:47:06.077760", "MEAN_MOTION": 14.43377492, "ECCENTRICITY": 0.01675614, "INCLINATION": 99.0261, "RA_OF_ASC_NODE": 123.1687, "ARG_OF_PERICENTER": 14.7882, "MEAN_ANOMALY": 37.7889, "EPHEMERIS_TYPE": 0, "CLASSIFICATION_TYPE": "U", "NORAD_CAT_ID": 29835, "ELEMENT_SET_NO": 999, "REV_AT_EPOCH": 99604, "BSTAR": 3.7805809e-05, "MEAN_MOTION_DOT": 9.3e-07, "MEAN_MOTION_DDOT": 0}, "tle": {"line1": "1 29835U 99025ED  25354.32437590  .00000093  00000+0  37806-4 0  9993", "line2": "2 29835  99.0261 123.1687 0167561  14.7882  37.7889 14.43377492996044"}}, "geometry": {"type": "Point", "coordinates": [-43.992239685518825, 52.302329074533446]}}, {"type": "Feature", "properties": {"norad_id": 29836, "name": "FENGYUN 1C DEB", "group": "fengyun-1c-debris", "lat": -17.179204667105815, "lon": 93.551053846112, "alt_km": 823.8315856909676, "timestamp": "2025-12-21T05:44:51.857463+00:00", "meta": {"OBJECT_NAME": "FENGYUN 1C DEB", "OBJECT_ID": "1999-025EE", "EPOCH": "2025-12-20T18:52:00.569280", "MEAN_MOTION": 14.54149605, "ECCENTRICITY": 0.01549173, "INCLINATION": 98.188, "RA_OF_ASC_NODE": 90.5561, "ARG_OF_PERICENTER": 177.5236, "MEAN_ANOMALY": 312.8448, "EPHEMERIS_TYPE": 0, "CLASSIFICATION_TYPE": "U", "NORAD_CAT_ID": 29836, "ELEMENT_SET_NO": 999, "REV_AT_EPOCH": 63672, "BSTAR": 0.00041409008, "MEAN_MOTION_DOT": 2.003e-05, "MEAN_MOTION_DDOT": 0}, "tle": {"line1": "1 29836U 99025EE  25354.78611770  .00002003  00000+0  41409-3 0  9994", "line2": "2 29836  98.1880  90.5561 0154917 177.5236 312.8448 14.54149605636721"}}, "geometry": {"type": "Point", "coordinates": [93.551053846112, -17.179204667105815]}}, {"type": "Feature", "properties": {"norad_id": 29841, "name": "FENGYUN 1C DEB", "group": "fengyun-1c-debris", "lat": 54.56301442916938, "lon": 135.33989860785007, "alt_km": 873.8869772167509, "timestamp": "2025-12-21T05:44:51.857473+00:00", "meta": {"OBJECT_NAME": "FENGYUN 1C DEB", "OBJECT_ID": "1999-025EK", "EPOCH": "2025-12-20T19:20:36.786048", "MEAN_MOTION": 14.46508461, "ECCENTRICITY": 0.01999995, "INCLINATION": 98.8198, "RA_OF_ASC_NODE": 302.2865, "ARG_OF_PERICENTER": 309.4265, "MEAN_ANOMALY": 78.6599, "EPHEMERIS_TYPE": 0, "CLASSIFICATION_TYPE": "U", "NORAD_CAT_ID": 29841, "ELEMENT_SET_NO": 999, "REV_AT_EPOCH": 99440, "BSTAR": 0.00033410321, "MEAN_MOTION_DOT": 1.482e-05, "MEAN_MOTION_DDOT": 0}, "tle": {"line1": "1 29841U 99025EK  25354.80598132  .00001482  00000+0  33410-3 0  9992", "line2": "2 29841  98.8198 302.2865 0199999 309.4265  78.6599 14.46508461994409"}}, "geometry": {"type": "Point", "coordinates": [135.33989860785007, 54.56301442916938]}}, {"type": "Feature", "properties": {"norad_id": 29842, "name": "FENGYUN 1C DEB", "group": "fengyun-1c-debris", "lat": -54.92104041571781, "lon": -109.33437368804475, "alt_km": 706.9157251909419, "timestamp": "2025-12-21T05:44:51.857483+00:00", "meta": {"OBJECT_NAME": "FENGYUN 1C DEB", "OBJECT_ID": "1999-025EL", "EPOCH": "2025-12-20T22:22:21.311040", "MEAN_MOTION": 14.60350633, "ECCENTRICITY": 0.0109075, "INCLINATION": 98.5693, "RA_OF_ASC_NODE": 82.7468, "ARG_OF_PERICENTER": 140.2554, "MEAN_ANOMALY": 279.6841, "EPHEMERIS_TYPE": 0, "CLASSIFICATION_TYPE": "U", "NORAD_CAT_ID": 29842, "ELEMENT_SET_NO": 999, "REV_AT_EPOCH": 99473, "BSTAR": 0.00080734076, "MEAN_MOTION_DOT": 4.192e-05, "MEAN_MOTION_DDOT": 0}, "tle": {"line1": "1 29842U 99025EL  25354.93219110  .00004192  00000+0  80734-3 0  9995", "line2": "2 29842  98.5693  82.7468 0109075 140.2554 279.6841 14.60350633994735"}}, "geometry": {"type": "Point", "coordinates": [-109.33437368804475, -54.92104041571781]}}]}